{
  "type": "FeatureCollection",
  "features": [
    {
      "type": "Feature",
      "properties": {
        "norad_id": 64751,
        "name": "PROGRESS-MS 31",
        "group": "stations",
        "lat": -18.131337393740093,
        "lon": -77.57214346638017,
        "alt_km": 420.12963831513935,
        "timestamp": "2025-12-23T20:42:35.830484+00:00",
        "meta_object_name": "PROGRESS-MS 31",
        "meta_object_id": "2025-146A",
        "meta_epoch": "2025-12-23T04:21:36.091008",
        "meta_mean_motion": 15.49746572,
        "meta_eccentricity": 0.00031904,
        "meta_inclination": 51.6323,
        "meta_ra_of_asc_node": 90.7678,
        "meta_arg_of_pericenter": 289.6661,
        "meta_mean_anomaly": 70.3984,
        "meta_ephemeris_type": 0,
        "meta_classification_type": "U",
        "meta_norad_cat_id": 64751,
        "meta_element_set_no": 999,
        "meta_rev_at_epoch": 675,
        "meta_bstar": 0.00021350548,
        "meta_mean_motion_dot": 0.00011641,
        "meta_mean_motion_ddot": 0,
        "tle_line1": "1 64751U 25146A   25357.18166772  .00011641  00000+0  21351-3 0  9998",
        "tle_line2": "2 64751  51.6323  90.7678 0003190 289.6661  70.3984 15.49746572  6752"
      },
      "geometry": {
        "type": "Point",
        "coordinates": [
          -77.57214346638017,
          -18.131337393740093
        ]
      }
    },
    {
      "type": "Feature",
      "properties": {
        "norad_id": 64786,
        "name": "TIANZHOU-9",
        "group": "stations",
        "lat": 17.1031912588726,
        "lon": -30.453995403674863,
        "alt_km": 387.0126183604807,
        "timestamp": "2025-12-23T20:42:35.830494+00:00",
        "meta_object_name": "TIANZHOU-9",
        "meta_object_id": "2025-149A",
        "meta_epoch": "2025-12-23T06:45:56.635200",
        "meta_mean_motion": 15.59596422,
        "meta_eccentricity": 0.0007971,
        "meta_inclination": 41.4686,
        "meta_ra_of_asc_node": 312.6856,
        "meta_arg_of_pericenter": 124.3462,
        "meta_mean_anomaly": 235.8132,
        "meta_ephemeris_type": 0,
        "meta_classification_type": "U",
        "meta_norad_cat_id": 64786,
        "meta_element_set_no": 999,
        "meta_rev_at_epoch": 25530,
        "meta_bstar": 0.00022671035,
        "meta_mean_motion_dot": 0.00018298,
        "meta_mean_motion_ddot": 0,
        "tle_line1": "1 64786U 25149A   25357.28190550  .00018298  00000+0  22671-3 0  9992",
        "tle_line2": "2 64786  41.4686 312.6856 0007971 124.3462 235.8132 15.59596422255306"
      },
      "geometry": {
        "type": "Point",
        "coordinates": [
          -30.453995403674863,
          17.1031912588726
        ]
      }
    },
    {
      "type": "Feature",
      "properties": {
        "norad_id": 65077,
        "name": "CREW DRAGON 11",
        "group": "stations",
        "lat": -18.13133851811939,
        "lon": -77.57214244644236,
        "alt_km": 420.12963836090694,
        "timestamp": "2025-12-23T20:42:35.830507+00:00",
        "meta_object_name": "CREW DRAGON 11",
        "meta_object_id": "2025-166A",
        "meta_epoch": "2025-12-23T04:21:36.091008",
        "meta_mean_motion": 15.49746572,
        "meta_eccentricity": 0.00031904,
        "meta_inclination": 51.6323,
        "meta_ra_of_asc_node": 90.7678,
        "meta_arg_of_pericenter": 289.6661,
        "meta_mean_anomaly": 70.3984,
        "meta_ephemeris_type": 0,
        "meta_classification_type": "U",
        "meta_norad_cat_id": 65077,
        "meta_element_set_no": 999,
        "meta_rev_at_epoch": 214,
        "meta_bstar": 0.00021350548,
        "meta_mean_motion_dot": 0.00011641,
        "meta_mean_motion_ddot": 0,
        "tle_line1": "1 65077U 25166A   25357.18166772  .00011641  00000+0  21351-3 0  9992",
        "tle_line2": "2 65077  51.6323  90.7678 0003190 289.6661  70.3984 15.49746572  2143"
      },
      "geometry": {
        "type": "Point",
        "coordinates": [
          -77.57214244644236,
          -18.13133851811939
        ]
      }
    },
    {
      "type": "Feature",
      "properties": {
        "norad_id": 65304,
        "name": "DRAGON CRS-33",
        "group": "stations",
        "lat": -18.131339055864757,
        "lon": -77.57214195864714,
        "alt_km": 420.1296383827939,
        "timestamp": "2025-12-23T20:42:35.830518+00:00",
        "meta_object_name": "DRAGON CRS-33",
        "meta_object_id": "2025-186A",
        "meta_epoch": "2025-12-23T04:21:36.091008",
        "meta_mean_motion": 15.49746572,
        "meta_eccentricity": 0.00031904,
        "meta_inclination": 51.6323,
        "meta_ra_of_asc_node": 90.7678,
        "meta_arg_of_pericenter": 289.6661,
        "meta_mean_anomaly": 70.3984,
        "meta_ephemeris_type": 0,
        "meta_classification_type": "U",
        "meta_norad_cat_id": 65304,
        "meta_element_set_no": 999,
        "meta_rev_at_epoch": 11,
        "meta_bstar": 0.00021350548,
        "meta_mean_motion_dot": 0.00011641,
        "meta_mean_motion_ddot": 0,
        "tle_line1": "1 65304U 25186A   25357.18166772  .00011641  00000+0  21351-3 0  9997",
        "tle_line2": "2 65304  51.6323  90.7678 0003190 289.6661  70.3984 15.49746572   111"
      },
      "geometry": {
        "type": "Point",
        "coordinates": [
          -77.57214195864714,
          -18.131339055864757
        ]
      }
    },
    {
      "type": "Feature",
      "properties": {
        "norad_id": 65586,
        "name": "PROGRESS-MS 32",
        "group": "stations",
        "lat": -18.13133954472532,
        "lon": -77.57214151519591,
        "alt_km": 420.1296384026937,
        "timestamp": "2025-12-23T20:42:35.830528+00:00",
        "meta_object_name": "PROGRESS-MS 32",
        "meta_object_id": "2025-204A",
        "meta_epoch": "2025-12-23T04:21:36.091008",
        "meta_mean_motion": 15.49746572,
        "meta_eccentricity": 0.00031904,
        "meta_inclination": 51.6323,
        "meta_ra_of_asc_node": 90.7678,
        "meta_arg_of_pericenter": 289.6661,
        "meta_mean_anomaly": 70.3984,
        "meta_ephemeris_type": 0,
        "meta_classification_type": "U",
        "meta_norad_cat_id": 65586,
        "meta_element_set_no": 999,
        "meta_rev_at_epoch": 27,
        "meta_bstar": 0.00021350548,
        "meta_mean_motion_dot": 0.00011641,
        "meta_mean_motion_ddot": 0,
        "tle_line1": "1 65586U 25204A   25357.18166772  .00011641  00000+0  21351-3 0  9990",
        "tle_line2": "2 65586  51.6323  90.7678 0003190 289.6661  70.3984 15.49746572   270"
      },
      "geometry": {
        "type": "Point",
        "coordinates": [
          -77.57214151519591,
          -18.13133954472532
        ]
      }
    },
    {
      "type": "Feature",
      "properties": {
        "norad_id": 65616,
        "name": "CYGNUS NG-23",
        "group": "stations",
        "lat": -18.131340815762776,
        "lon": -77.57214036222268,
        "alt_km": 420.12963845442846,
        "timestamp": "2025-12-23T20:42:35.830554+00:00",
        "meta_object_name": "CYGNUS NG-23",
        "meta_object_id": "2025-208A",
        "meta_epoch": "2025-12-23T04:21:36.091008",
        "meta_mean_motion": 15.49746572,
        "meta_eccentricity": 0.00031904,
        "meta_inclination": 51.6323,
        "meta_ra_of_asc_node": 90.7678,
        "meta_arg_of_pericenter": 289.6661,
        "meta_mean_anomaly": 70.3984,
        "meta_ephemeris_type": 0,
        "meta_classification_type": "U",
        "meta_norad_cat_id": 65616,
        "meta_element_set_no": 999,
        "meta_rev_at_epoch": 22,
        "meta_bstar": 0.00021350548,
        "meta_mean_motion_dot": 0.00011641,
        "meta_mean_motion_ddot": 0,
        "tle_line1": "1 65616U 25208A   25357.18166772  .00011641  00000+0  21351-3 0  9998",
        "tle_line2": "2 65616  51.6323  90.7678 0003190 289.6661  70.3984 15.49746572   229"
      },
      "geometry": {
        "type": "Point",
        "coordinates": [
          -77.57214036222268,
          -18.131340815762776
        ]
      }
    },
    {
      "type": "Feature",
      "properties": {
        "norad_id": 65729,
        "name": "DRAGONFLY",
        "group": "stations",
        "lat": 47.07601547572065,
        "lon": 137.08544524557638,
        "alt_km": 335.9577790241374,
        "timestamp": "2025-12-23T20:42:35.830567+00:00",
        "meta_object_name": "DRAGONFLY",
        "meta_object_id": "1998-067XH",
        "meta_epoch": "2025-12-22T15:29:37.121856",
        "meta_mean_motion": 15.75220895,
        "meta_eccentricity": 0.00077856,
        "meta_inclination": 51.6244,
        "meta_ra_of_asc_node": 84.9151,
        "meta_arg_of_pericenter": 337.8608,
        "meta_mean_anomaly": 22.2054,
        "meta_ephemeris_type": 0,
        "meta_classification_type": "U",
        "meta_norad_cat_id": 65729,
        "meta_element_set_no": 999,
        "meta_rev_at_epoch": 1472,
        "meta_bstar": 0.0012171562,
        "meta_mean_motion_dot": 0.0019065,
        "meta_mean_motion_ddot": 0,
        "tle_line1": "1 65729U 98067XH  25356.64556854  .00190650  00000+0  12172-2 0  9998",
        "tle_line2": "2 65729  51.6244  84.9151 0007785 337.8608  22.2054 15.75220895 14726"
      },
      "geometry": {
        "type": "Point",
        "coordinates": [
          137.08544524557638,
          47.07601547572065
        ]
      }
    }
  ]
}